start=new Date('2023-05-04T00:00:00.000Z').valueOf();
sats=[{"PERIAPSIS":"533.818","TLE_LINE2":"2 52452  53.2172  64.2912 0001335  92.6611 267.4535 15.10478837 54882","ECCENTRICITY":"0.00013350","NORAD_CAT_ID":"52452","INCLINATION":"53.2172","DECAY_DATE":null,"EPOCH":"2023-05-03T05:33:50.512032","CLASSIFICATION_TYPE":"U","RCS_SIZE":"LARGE","SITE":"AFETR","FILE":"3899966","GP_ID":"231167179","PERIOD":"95.334","MEAN_MOTION_DDOT":"0.0000000000000","COUNTRY_CODE":"US","MEAN_ANOMALY":"267.4535","EPHEMERIS_TYPE":"0","TIME_SYSTEM":"UTC","LAUNCH_DATE":"2022-05-06","SEMIMAJOR_AXIS":"6912.876","TLE_LINE1":"1 52452U 22049B   23123.23183463  .00001188  00000-0  88903-4 0  9996","ARG_OF_PERICENTER":"92.6611","REF_FRAME":"TEME","BSTAR":"0.00008890300000","CENTER_NAME":"EARTH","MEAN_MOTION":"15.10478837","OBJECT_ID":"2022-049B","OBJECT_NAME":"STARLINK-3909","APOAPSIS":"535.664","ELEMENT_SET_NO":"999","MEAN_ELEMENT_THEORY":"SGP4","RA_OF_ASC_NODE":"64.2912","REV_AT_EPOCH":"5488","MEAN_MOTION_DOT":"0.00001188","OBJECT_TYPE":"PAYLOAD"},{"APOAPSIS":"540.362","ELEMENT_SET_NO":"999","MEAN_ELEMENT_THEORY":"SGP4","RA_OF_ASC_NODE":"64.1966","REV_AT_EPOCH":"5489","MEAN_MOTION_DOT":"0.00000504","OBJECT_TYPE":"PAYLOAD","CENTER_NAME":"EARTH","MEAN_MOTION":"15.08845887","BSTAR":"0.00004971800000","OBJECT_NAME":"STARLINK-3872","OBJECT_ID":"2022-049C","EPHEMERIS_TYPE":"0","MEAN_ANOMALY":"265.8602","COUNTRY_CODE":"US","TIME_SYSTEM":"UTC","SEMIMAJOR_AXIS":"6917.862","LAUNCH_DATE":"2022-05-06","REF_FRAME":"TEME","TLE_LINE1":"1 52453U 22049C   23123.27815703  .00000504  00000-0  49718-4 0  9992","ARG_OF_PERICENTER":"94.2495","PERIAPSIS":"539.092","TLE_LINE2":"2 52453  53.2187  64.1966 0000918  94.2495 265.8602 15.08845887 54899","NORAD_CAT_ID":"52453","INCLINATION":"53.2187","ECCENTRICITY":"0.00009180","GP_ID":"231167412","PERIOD":"95.437","FILE":"3899966","MEAN_MOTION_DDOT":"0.0000000000000","DECAY_DATE":null,"EPOCH":"2023-05-03T06:40:32.767392","CLASSIFICATION_TYPE":"U","RCS_SIZE":"LARGE","SITE":"AFETR"},{"TLE_LINE1":"1 52454U 22049D   23123.81176349 -.00000004  00000-0  17807-4 0  9999","ARG_OF_PERICENTER":"95.4810","REF_FRAME":"TEME","LAUNCH_DATE":"2022-05-06","SEMIMAJOR_AXIS":"6917.867","TIME_SYSTEM":"UTC","COUNTRY_CODE":"US","MEAN_ANOMALY":"264.6318","EPHEMERIS_TYPE":"0","CLASSIFICATION_TYPE":"U","DECAY_DATE":null,"EPOCH":"2023-05-03T19:28:56.365536","SITE":"AFETR","RCS_SIZE":"MEDIUM","FILE":"3900281","GP_ID":"231199459","PERIOD":"95.437","MEAN_MOTION_DDOT":"0.0000000000000","ECCENTRICITY":"0.00011920","NORAD_CAT_ID":"52454","INCLINATION":"53.2183","TLE_LINE2":"2 52454  53.2183  61.8019 0001192  95.4810 264.6318 15.08844316 54974","PERIAPSIS":"538.908","OBJECT_TYPE":"PAYLOAD","REV_AT_EPOCH":"5497","MEAN_ELEMENT_THEORY":"SGP4","RA_OF_ASC_NODE":"61.8019","MEAN_MOTION_DOT":"-0.00000004","ELEMENT_SET_NO":"999","APOAPSIS":"540.557","OBJECT_ID":"2022-049D","OBJECT_NAME":"STARLINK-3888","BSTAR":"0.00001780700000","CENTER_NAME":"EARTH","MEAN_MOTION":"15.08844316"},{"OBJECT_NAME":"STARLINK-3890","OBJECT_ID":"2022-049E","MEAN_MOTION":"15.08837793","CENTER_NAME":"EARTH","BSTAR":"0.00025296000000","MEAN_MOTION_DOT":"0.00003740","RA_OF_ASC_NODE":"64.2095","REV_AT_EPOCH":"5489","MEAN_ELEMENT_THEORY":"SGP4","OBJECT_TYPE":"PAYLOAD","APOAPSIS":"540.691","ELEMENT_SET_NO":"999","INCLINATION":"53.2167","NORAD_CAT_ID":"52455","ECCENTRICITY":"0.00013570","MEAN_MOTION_DDOT":"0.0000000000000","PERIOD":"95.438","GP_ID":"231166930","FILE":"3899966","RCS_SIZE":"LARGE","SITE":"AFETR","DECAY_DATE":null,"CLASSIFICATION_TYPE":"U","EPOCH":"2023-05-03T06:36:37.545984","PERIAPSIS":"538.813","TLE_LINE2":"2 52455  53.2167  64.2095 0001357 110.2949 249.8189 15.08837793 54893","SEMIMAJOR_AXIS":"6917.887","LAUNCH_DATE":"2022-05-06","REF_FRAME":"TEME","ARG_OF_PERICENTER":"110.2949","TLE_LINE1":"1 52455U 22049E   23123.27543456  .00003740  00000-0  25296-3 0  9996","MEAN_ANOMALY":"249.8189","EPHEMERIS_TYPE":"0","COUNTRY_CODE":"US","TIME_SYSTEM":"UTC"},{"APOAPSIS":"540.674","ELEMENT_SET_NO":"999","MEAN_MOTION_DOT":"-0.00001399","MEAN_ELEMENT_THEORY":"SGP4","RA_OF_ASC_NODE":"61.5498","REV_AT_EPOCH":"5498","OBJECT_TYPE":"PAYLOAD","MEAN_MOTION":"15.08837656","CENTER_NAME":"EARTH","BSTAR":"-0.00006984000000","OBJECT_NAME":"STARLINK-3896","OBJECT_ID":"2022-049F","EPHEMERIS_TYPE":"0","MEAN_ANOMALY":"256.2564","COUNTRY_CODE":"US","TIME_SYSTEM":"UTC","SEMIMAJOR_AXIS":"6917.888","LAUNCH_DATE":"2022-05-06","REF_FRAME":"TEME","ARG_OF_PERICENTER":"103.8577","TLE_LINE1":"1 52456U 22049F   23123.86791907 -.00001399  00000-0 -69840-4 0  9992","PERIAPSIS":"538.831","TLE_LINE2":"2 52456  53.2187  61.5498 0001332 103.8577 256.2564 15.08837656 54988","INCLINATION":"53.2187","NORAD_CAT_ID":"52456","ECCENTRICITY":"0.00013320","MEAN_MOTION_DDOT":"0.0000000000000","FILE":"3900281","GP_ID":"231198459","PERIOD":"95.438","RCS_SIZE":"LARGE","SITE":"AFETR","CLASSIFICATION_TYPE":"U","DECAY_DATE":null,"EPOCH":"2023-05-03T20:49:48.207648"},{"TIME_SYSTEM":"UTC","MEAN_ANOMALY":"253.8358","EPHEMERIS_TYPE":"0","COUNTRY_CODE":"US","REF_FRAME":"TEME","TLE_LINE1":"1 52457U 22049G   23123.20138671  .00093078  00000-0  57072-2 0  9999","ARG_OF_PERICENTER":"106.2778","SEMIMAJOR_AXIS":"6916.272","LAUNCH_DATE":"2022-05-06","TLE_LINE2":"2 52457  53.2162  64.5404 0001303 106.2778 253.8358 15.09366448 54880","PERIAPSIS":"537.236","GP_ID":"231167912","PERIOD":"95.404","FILE":"3899966","MEAN_MOTION_DDOT":"0.0000000000000","EPOCH":"2023-05-03T04:49:59.811744","DECAY_DATE":null,"CLASSIFICATION_TYPE":"U","SITE":"AFETR","RCS_SIZE":"LARGE","NORAD_CAT_ID":"52457","INCLINATION":"53.2162","ECCENTRICITY":"0.00013030","ELEMENT_SET_NO":"999","APOAPSIS":"539.038","OBJECT_TYPE":"PAYLOAD","MEAN_ELEMENT_THEORY":"SGP4","RA_OF_ASC_NODE":"64.5404","REV_AT_EPOCH":"5488","MEAN_MOTION_DOT":"0.00093078","CENTER_NAME":"EARTH","MEAN_MOTION":"15.09366448","BSTAR":"0.00570720000000","OBJECT_NAME":"STARLINK-3899","OBJECT_ID":"2022-049G"},{"ECCENTRICITY":"0.00011050","NORAD_CAT_ID":"52458","INCLINATION":"53.2183","EPOCH":"2023-05-03T20:39:12.632832","DECAY_DATE":null,"CLASSIFICATION_TYPE":"U","RCS_SIZE":"LARGE","SITE":"AFETR","FILE":"3900246","GP_ID":"231175020","PERIOD":"95.437","MEAN_MOTION_DDOT":"0.0000000000000","PERIAPSIS":"538.975","TLE_LINE2":"2 52458  53.2183  61.5836 0001105 102.6046 257.5070 15.08842054 55141","LAUNCH_DATE":"2022-05-06","SEMIMAJOR_AXIS":"6917.874","TLE_LINE1":"1 52458U 22049H   23123.86056288 -.00000439  00000-0 -94801-5 0  9990","ARG_OF_PERICENTER":"102.6046","REF_FRAME":"TEME","COUNTRY_CODE":"US","EPHEMERIS_TYPE":"0","MEAN_ANOMALY":"257.5070","TIME_SYSTEM":"UTC","OBJECT_ID":"2022-049H","OBJECT_NAME":"STARLINK-3898","BSTAR":"-0.00000948010000","CENTER_NAME":"EARTH","MEAN_MOTION":"15.08842054","REV_AT_EPOCH":"5514","MEAN_ELEMENT_THEORY":"SGP4","RA_OF_ASC_NODE":"61.5836","MEAN_MOTION_DOT":"-0.00000439","OBJECT_TYPE":"PAYLOAD","APOAPSIS":"540.504","ELEMENT_SET_NO":"999"},{"LAUNCH_DATE":"2022-05-06","SEMIMAJOR_AXIS":"6917.847","TLE_LINE1":"1 52459U 22049J   23123.24963366  .00003411  00000-0  23220-3 0  9993","ARG_OF_PERICENTER":"104.0564","REF_FRAME":"TEME","COUNTRY_CODE":"US","MEAN_ANOMALY":"256.0562","EPHEMERIS_TYPE":"0","TIME_SYSTEM":"UTC","ECCENTRICITY":"0.00012020","NORAD_CAT_ID":"52459","INCLINATION":"53.2177","CLASSIFICATION_TYPE":"U","DECAY_DATE":null,"EPOCH":"2023-05-03T05:59:28.348224","RCS_SIZE":"LARGE","SITE":"AFETR","GP_ID":"231166431","FILE":"3899966","PERIOD":"95.437","MEAN_MOTION_DDOT":"0.0000000000000","PERIAPSIS":"538.880","TLE_LINE2":"2 52459  53.2177  54.3257 0001202 104.0564 256.0562 15.08851024 55025","REV_AT_EPOCH":"5502","RA_OF_ASC_NODE":"54.3257","MEAN_ELEMENT_THEORY":"SGP4","MEAN_MOTION_DOT":"0.00003411","OBJECT_TYPE":"PAYLOAD","APOAPSIS":"540.543","ELEMENT_SET_NO":"999","OBJECT_ID":"2022-049J","OBJECT_NAME":"STARLINK-3856","BSTAR":"0.00023220000000","CENTER_NAME":"EARTH","MEAN_MOTION":"15.08851024"},{"MEAN_MOTION":"15.08841237","CENTER_NAME":"EARTH","BSTAR":"-0.00011115000000","OBJECT_NAME":"STARLINK-3865","OBJECT_ID":"2022-049K","APOAPSIS":"540.544","ELEMENT_SET_NO":"999","MEAN_MOTION_DOT":"-0.00002056","RA_OF_ASC_NODE":"51.6398","REV_AT_EPOCH":"5511","MEAN_ELEMENT_THEORY":"SGP4","OBJECT_TYPE":"PAYLOAD","PERIAPSIS":"538.939","TLE_LINE2":"2 52460  53.2180  51.6398 0001160 122.9373 237.1730 15.08841237 55119","INCLINATION":"53.2180","NORAD_CAT_ID":"52460","ECCENTRICITY":"0.00011600","MEAN_MOTION_DDOT":"0.0000000000000","PERIOD":"95.437","GP_ID":"231198959","FILE":"3900281","SITE":"AFETR","RCS_SIZE":"LARGE","DECAY_DATE":null,"EPOCH":"2023-05-03T20:07:20.581824","CLASSIFICATION_TYPE":"U","EPHEMERIS_TYPE":"0","MEAN_ANOMALY":"237.1730","COUNTRY_CODE":"US","TIME_SYSTEM":"UTC","SEMIMAJOR_AXIS":"6917.877","LAUNCH_DATE":"2022-05-06","REF_FRAME":"TEME","ARG_OF_PERICENTER":"122.9373","TLE_LINE1":"1 52460U 22049K   23123.83843266 -.00002056  00000-0 -11115-3 0  9992"},{"APOAPSIS":"540.154","ELEMENT_SET_NO":"999","MEAN_MOTION_DOT":"-0.00001946","MEAN_ELEMENT_THEORY":"SGP4","REV_AT_EPOCH":"5526","RA_OF_ASC_NODE":"41.3648","OBJECT_TYPE":"PAYLOAD","BSTAR":"-0.00010423000000","MEAN_MOTION":"15.08838844","CENTER_NAME":"EARTH","OBJECT_ID":"2022-049L","OBJECT_NAME":"STARLINK-3900","COUNTRY_CODE":"US","MEAN_ANOMALY":"264.4452","EPHEMERIS_TYPE":"0","TIME_SYSTEM":"UTC","LAUNCH_DATE":"2022-05-06","SEMIMAJOR_AXIS":"6917.884","ARG_OF_PERICENTER":"95.6607","TLE_LINE1":"1 52461U 22049L   23123.90927910 -.00001946  00000-0 -10423-3 0  9998","REF_FRAME":"TEME","PERIAPSIS":"539.344","TLE_LINE2":"2 52461  53.2176  41.3648 0000586  95.6607 264.4452 15.08838844 55266","ECCENTRICITY":"0.00005860","INCLINATION":"53.2176","NORAD_CAT_ID":"52461","SITE":"AFETR","RCS_SIZE":"LARGE","DECAY_DATE":null,"EPOCH":"2023-05-03T21:49:21.714240","CLASSIFICATION_TYPE":"U","MEAN_MOTION_DDOT":"0.0000000000000","FILE":"3900281","GP_ID":"231199209","PERIOD":"95.438"}];
